start=new Date('2022-06-12T00:00:00.000Z').valueOf();
sats=[{"REF_FRAME":"TEME","TIME_SYSTEM":"UTC","ELEMENT_SET_NO":"999","MEAN_MOTION_DDOT":"0.0000000000000","APOAPSIS":"548.400","DECAY_DATE":null,"MEAN_MOTION":"15.06390175","EPHEMERIS_TYPE":"0","MEAN_ELEMENT_THEORY":"SGP4","PERIAPSIS":"546.088","FILE":"3492149","SITE":"AFETR","CLASSIFICATION_TYPE":"U","LAUNCH_DATE":"2020-06-13","OBJECT_NAME":"STARLINK-1461","BSTAR":"0.00013229000000","SEMIMAJOR_AXIS":"6925.379","REV_AT_EPOCH":"11017","CENTER_NAME":"EARTH","OBJECT_TYPE":"PAYLOAD","COUNTRY_CODE":"US","MEAN_MOTION_DOT":"0.00001689","INCLINATION":"53.0566","RCS_SIZE":"LARGE","GP_ID":"205925246","RA_OF_ASC_NODE":"253.0375","PERIOD":"95.593","EPOCH":"2022-06-11T18:07:12.918432","OBJECT_ID":"2020-038A","ARG_OF_PERICENTER":"56.9123","NORAD_CAT_ID":"45730","MEAN_ANOMALY":"303.2026","TLE_LINE2":"2 45730  53.0566 253.0375 0001669  56.9123 303.2026 15.06390175110172","ECCENTRICITY":"0.00016690","TLE_LINE1":"1 45730U 20038A   22162.75501063  .00001689  00000-0  13229-3 0  9996"},{"MEAN_MOTION":"15.06397191","EPHEMERIS_TYPE":"0","MEAN_ELEMENT_THEORY":"SGP4","MEAN_MOTION_DDOT":"0.0000000000000","DECAY_DATE":null,"APOAPSIS":"548.200","FILE":"3492149","PERIAPSIS":"546.244","CLASSIFICATION_TYPE":"U","SITE":"AFETR","LAUNCH_DATE":"2020-06-13","OBJECT_NAME":"STARLINK-1465","REF_FRAME":"TEME","TIME_SYSTEM":"UTC","ELEMENT_SET_NO":"999","SEMIMAJOR_AXIS":"6925.357","REV_AT_EPOCH":"11014","BSTAR":"0.00008006700000","RCS_SIZE":"LARGE","GP_ID":"205923996","RA_OF_ASC_NODE":"253.5587","OBJECT_TYPE":"PAYLOAD","CENTER_NAME":"EARTH","MEAN_MOTION_DOT":"0.00000911","INCLINATION":"53.0549","COUNTRY_CODE":"US","TLE_LINE1":"1 45731U 20038B   22162.63705687  .00000911  00000-0  80067-4 0  9994","PERIOD":"95.592","EPOCH":"2022-06-11T15:17:21.713568","ARG_OF_PERICENTER":"67.0802","OBJECT_ID":"2020-038B","NORAD_CAT_ID":"45731","MEAN_ANOMALY":"293.0336","TLE_LINE2":"2 45731  53.0549 253.5587 0001412  67.0802 293.0336 15.06397191110149","ECCENTRICITY":"0.00014120"},{"ECCENTRICITY":"0.00016820","TLE_LINE2":"2 45732  53.0550 253.0083 0001682  59.4756 300.6399 15.06399769110169","NORAD_CAT_ID":"45732","MEAN_ANOMALY":"300.6399","OBJECT_ID":"2020-038C","ARG_OF_PERICENTER":"59.4756","PERIOD":"95.592","EPOCH":"2022-06-11T18:12:31.437216","TLE_LINE1":"1 45732U 20038C   22162.75869719  .00004280  00000-0  30606-3 0  9991","COUNTRY_CODE":"US","MEAN_MOTION_DOT":"0.00004280","INCLINATION":"53.0550","CENTER_NAME":"EARTH","OBJECT_TYPE":"PAYLOAD","RA_OF_ASC_NODE":"253.0083","GP_ID":"205924246","RCS_SIZE":"LARGE","BSTAR":"0.00030606000000","REV_AT_EPOCH":"11016","SEMIMAJOR_AXIS":"6925.349","TIME_SYSTEM":"UTC","ELEMENT_SET_NO":"999","REF_FRAME":"TEME","SITE":"AFETR","LAUNCH_DATE":"2020-06-13","CLASSIFICATION_TYPE":"U","OBJECT_NAME":"STARLINK-1466","FILE":"3492149","PERIAPSIS":"546.049","APOAPSIS":"548.379","DECAY_DATE":null,"MEAN_MOTION_DDOT":"0.0000000000000","MEAN_ELEMENT_THEORY":"SGP4","EPHEMERIS_TYPE":"0","MEAN_MOTION":"15.06399769"},{"GP_ID":"205925497","RA_OF_ASC_NODE":"253.5730","RCS_SIZE":"LARGE","MEAN_MOTION_DOT":"0.00000970","INCLINATION":"53.0533","COUNTRY_CODE":"US","CENTER_NAME":"EARTH","OBJECT_TYPE":"PAYLOAD","TLE_LINE1":"1 45733U 20038D   22162.63336571  .00000970  00000-0  83997-4 0  9998","MEAN_ANOMALY":"300.7314","NORAD_CAT_ID":"45733","ECCENTRICITY":"0.00015330","TLE_LINE2":"2 45733  53.0533 253.5730 0001533  59.3826 300.7314 15.06398907110146","PERIOD":"95.592","EPOCH":"2022-06-11T15:12:02.797344","OBJECT_ID":"2020-038D","ARG_OF_PERICENTER":"59.3826","FILE":"3492149","PERIAPSIS":"546.155","OBJECT_NAME":"STARLINK-1467","SITE":"AFETR","LAUNCH_DATE":"2020-06-13","CLASSIFICATION_TYPE":"U","MEAN_MOTION":"15.06398907","MEAN_ELEMENT_THEORY":"SGP4","EPHEMERIS_TYPE":"0","MEAN_MOTION_DDOT":"0.0000000000000","DECAY_DATE":null,"APOAPSIS":"548.279","ELEMENT_SET_NO":"999","TIME_SYSTEM":"UTC","REF_FRAME":"TEME","REV_AT_EPOCH":"11014","SEMIMAJOR_AXIS":"6925.352","BSTAR":"0.00008399700000"},{"TLE_LINE1":"1 45734U 20038E   22162.74763686  .00001198  00000-0  99304-4 0  9994","ARG_OF_PERICENTER":"58.1256","OBJECT_ID":"2020-038E","PERIOD":"95.592","EPOCH":"2022-06-11T17:56:35.824704","TLE_LINE2":"2 45734  53.0545 253.0694 0001609  58.1256 301.9889 15.06397725110161","ECCENTRICITY":"0.00016090","MEAN_ANOMALY":"301.9889","NORAD_CAT_ID":"45734","RCS_SIZE":"LARGE","RA_OF_ASC_NODE":"253.0694","GP_ID":"205925746","OBJECT_TYPE":"PAYLOAD","CENTER_NAME":"EARTH","COUNTRY_CODE":"US","MEAN_MOTION_DOT":"0.00001198","INCLINATION":"53.0545","SEMIMAJOR_AXIS":"6925.356","REV_AT_EPOCH":"11016","BSTAR":"0.00009930400000","DECAY_DATE":null,"APOAPSIS":"548.335","MEAN_MOTION_DDOT":"0.0000000000000","MEAN_ELEMENT_THEORY":"SGP4","EPHEMERIS_TYPE":"0","MEAN_MOTION":"15.06397725","SITE":"AFETR","LAUNCH_DATE":"2020-06-13","OBJECT_NAME":"STARLINK-1468","CLASSIFICATION_TYPE":"U","FILE":"3492149","PERIAPSIS":"546.106","REF_FRAME":"TEME","TIME_SYSTEM":"UTC","ELEMENT_SET_NO":"999"},{"ARG_OF_PERICENTER":"83.6603","OBJECT_ID":"2020-038F","PERIOD":"95.593","EPOCH":"2022-06-11T17:14:07.870560","ECCENTRICITY":"0.00013270","TLE_LINE2":"2 45735  53.0553 253.2028 0001327  83.6603 276.4538 15.06390180110154","NORAD_CAT_ID":"45735","MEAN_ANOMALY":"276.4538","TLE_LINE1":"1 45735U 20038F   22162.71814665  .00001626  00000-0  12808-3 0  9995","CENTER_NAME":"EARTH","OBJECT_TYPE":"PAYLOAD","COUNTRY_CODE":"US","INCLINATION":"53.0553","MEAN_MOTION_DOT":"0.00001626","RCS_SIZE":"LARGE","RA_OF_ASC_NODE":"253.2028","GP_ID":"205924496","BSTAR":"0.00012808000000","SEMIMAJOR_AXIS":"6925.379","REV_AT_EPOCH":"11015","REF_FRAME":"TEME","TIME_SYSTEM":"UTC","ELEMENT_SET_NO":"999","DECAY_DATE":null,"APOAPSIS":"548.163","MEAN_MOTION_DDOT":"0.0000000000000","MEAN_ELEMENT_THEORY":"SGP4","EPHEMERIS_TYPE":"0","MEAN_MOTION":"15.06390180","SITE":"AFETR","LAUNCH_DATE":"2020-06-13","CLASSIFICATION_TYPE":"U","OBJECT_NAME":"STARLINK-1471","PERIAPSIS":"546.325","FILE":"3492149"},{"PERIOD":"93.650","EPOCH":"2022-06-11T21:26:52.649952","ARG_OF_PERICENTER":"290.4935","OBJECT_ID":"2020-038G","MEAN_ANOMALY":"69.5934","NORAD_CAT_ID":"45736","ECCENTRICITY":"0.00012500","TLE_LINE2":"2 45736  53.0620 225.0915 0001250 290.4935  69.5934 15.37639709110577","TLE_LINE1":"1 45736U 20038G   22162.89366493  .00006306  00000-0  17844-3 0  9991","CENTER_NAME":"EARTH","OBJECT_TYPE":"PAYLOAD","COUNTRY_CODE":"US","INCLINATION":"53.0620","MEAN_MOTION_DOT":"0.00006306","RCS_SIZE":"LARGE","GP_ID":"205924746","RA_OF_ASC_NODE":"225.0915","BSTAR":"0.00017844000000","SEMIMAJOR_AXIS":"6831.228","REV_AT_EPOCH":"11057","REF_FRAME":"TEME","TIME_SYSTEM":"UTC","ELEMENT_SET_NO":"999","MEAN_MOTION_DDOT":"0.0000000000000","DECAY_DATE":null,"APOAPSIS":"453.947","MEAN_MOTION":"15.37639709","EPHEMERIS_TYPE":"0","MEAN_ELEMENT_THEORY":"SGP4","FILE":"3492149","PERIAPSIS":"452.239","SITE":"AFETR","LAUNCH_DATE":"2020-06-13","OBJECT_NAME":"STARLINK-1472","CLASSIFICATION_TYPE":"U"},{"PERIOD":"95.592","EPOCH":"2022-06-11T15:22:39.945504","OBJECT_ID":"2020-038J","ARG_OF_PERICENTER":"72.9812","NORAD_CAT_ID":"45738","MEAN_ANOMALY":"287.1341","TLE_LINE2":"2 45738  53.0561 253.5500 0001501  72.9812 287.1341 15.06404775110147","ECCENTRICITY":"0.00015010","TLE_LINE1":"1 45738U 20038J   22162.64074011  .00001416  00000-0  11392-3 0  9997","CENTER_NAME":"EARTH","OBJECT_TYPE":"PAYLOAD","COUNTRY_CODE":"US","MEAN_MOTION_DOT":"0.00001416","INCLINATION":"53.0561","RCS_SIZE":"LARGE","GP_ID":"205924998","RA_OF_ASC_NODE":"253.5500","BSTAR":"0.00011392000000","SEMIMAJOR_AXIS":"6925.334","REV_AT_EPOCH":"11014","REF_FRAME":"TEME","TIME_SYSTEM":"UTC","ELEMENT_SET_NO":"999","MEAN_MOTION_DDOT":"0.0000000000000","DECAY_DATE":null,"APOAPSIS":"548.238","MEAN_MOTION":"15.06404775","MEAN_ELEMENT_THEORY":"SGP4","EPHEMERIS_TYPE":"0","FILE":"3492149","PERIAPSIS":"546.159","SITE":"AFETR","LAUNCH_DATE":"2020-06-13","CLASSIFICATION_TYPE":"U","OBJECT_NAME":"STARLINK-1474"},{"RCS_SIZE":"LARGE","GP_ID":"205925247","RA_OF_ASC_NODE":"214.3648","CENTER_NAME":"EARTH","OBJECT_TYPE":"PAYLOAD","COUNTRY_CODE":"US","MEAN_MOTION_DOT":"-0.00000039","INCLINATION":"53.0537","TLE_LINE1":"1 45739U 20038K   22162.45645834 -.00000039  00000-0  16288-4 0  9995","PERIOD":"95.593","EPOCH":"2022-06-11T10:57:18.000576","OBJECT_ID":"2020-038K","ARG_OF_PERICENTER":"45.1327","NORAD_CAT_ID":"45739","MEAN_ANOMALY":"314.9789","ECCENTRICITY":"0.00015670","TLE_LINE2":"2 45739  53.0537 214.3648 0001567  45.1327 314.9789 15.06393110110677","MEAN_MOTION_DDOT":"0.0000000000000","DECAY_DATE":null,"APOAPSIS":"548.320","MEAN_MOTION":"15.06393110","EPHEMERIS_TYPE":"0","MEAN_ELEMENT_THEORY":"SGP4","FILE":"3492149","PERIAPSIS":"546.149","SITE":"AFETR","CLASSIFICATION_TYPE":"U","LAUNCH_DATE":"2020-06-13","OBJECT_NAME":"STARLINK-1475","REF_FRAME":"TEME","ELEMENT_SET_NO":"999","TIME_SYSTEM":"UTC","SEMIMAJOR_AXIS":"6925.370","REV_AT_EPOCH":"11067","BSTAR":"0.00001628800000"},{"ELEMENT_SET_NO":"999","TIME_SYSTEM":"UTC","REF_FRAME":"TEME","CLASSIFICATION_TYPE":"U","SITE":"AFETR","LAUNCH_DATE":"2020-06-13","OBJECT_NAME":"STARLINK-1479","FILE":"3492149","PERIAPSIS":"546.216","APOAPSIS":"548.258","DECAY_DATE":null,"MEAN_MOTION_DDOT":"0.0000000000000","MEAN_ELEMENT_THEORY":"SGP4","EPHEMERIS_TYPE":"0","MEAN_MOTION":"15.06392350","BSTAR":"0.00008561000000","REV_AT_EPOCH":"11015","SEMIMAJOR_AXIS":"6925.372","COUNTRY_CODE":"US","INCLINATION":"53.0551","MEAN_MOTION_DOT":"0.00000994","CENTER_NAME":"EARTH","OBJECT_TYPE":"PAYLOAD","RA_OF_ASC_NODE":"253.2157","GP_ID":"205923997","RCS_SIZE":"LARGE","ECCENTRICITY":"0.00014750","TLE_LINE2":"2 45740  53.0551 253.2157 0001475  72.6614 287.4536 15.06392350110156","NORAD_CAT_ID":"45740","MEAN_ANOMALY":"287.4536","OBJECT_ID":"2020-038L","ARG_OF_PERICENTER":"72.6614","PERIOD":"95.593","EPOCH":"2022-06-11T17:08:50.084448","TLE_LINE1":"1 45740U 20038L   22162.71446857  .00000994  00000-0  85610-4 0  9994"}];
